COSMOS 2419 (714)       
1 28915U 05050A   17255.39230744  .00000021  00000-0  00000+0 0  9999
2 28915  65.5397  62.9160 0015956 358.7170  24.7656  2.13106822 91198
COSMOS 2425 (716)       
1 29670U 06062A   17254.55799994  .00000006  00000-0  10000-3 0  9994
2 29670  65.4174 301.9513 0019831 339.9232 175.1134  2.13105068 83377
COSMOS 2426 (717)       
1 29671U 06062B   17254.65292226  .00000006  00000-0  10000-3 0  9992
2 29671  65.4355 302.0391 0019063 170.9529 274.6017  2.13103047 83385
COSMOS 2424 (715)       
1 29672U 06062C   17255.30268032  .00000007  00000-0  10000-3 0  9995
2 29672  65.4184 301.9378 0018446 170.1820 228.9752  2.13102479 83396
COSMOS 2433 (720)       
1 32275U 07052A   17254.68223442  .00000019  00000-0  10000-3 0  9997
2 32275  65.5543  62.7196 0000880 193.8273 248.4796  2.13104713 76891
COSMOS 2432 (719)       
1 32276U 07052B   17254.86246416  .00000020  00000-0  10000-3 0  9996
2 32276  65.5657  62.7867 0009924 346.3286 186.9473  2.13104045 76896
COSMOS 2434 (721)       
1 32393U 07065A   17255.13063280  .00000007  00000-0  00000+0 0  9997
2 32393  65.0333 301.0397 0004008 147.1199 168.3668  2.13103063 75604
COSMOS 2436 (723)       
1 32395U 07065C   17254.60830061  .00000007  00000-0  10000-3 0  9994
2 32395  65.0435 301.1050 0013088 353.2739 330.6190  2.13104435 75523
COSMOS 2443 (725)       
1 33379U 08046B   17253.34883583  .00000015  00000-0  00000-0 0  9999
2 33379  65.4840  62.1394 0012834 175.7279 222.5718  2.13099446 69724
COSMOS 2456 (730)       
1 36111U 09070A   17255.17834804  .00000015  00000-0  00000+0 0  9998
2 36111  64.1809 180.6030 0005383 306.5132 216.9783  2.13103041 60275
COSMOS 2457 (733)       
1 36112U 09070B   17254.67466372  .00000021  00000-0  00000-0 0  9992
2 36112  64.1632 180.5364 0006002 180.4080  84.8423  2.13101824 60268
COSMOS 2458 (734)       
1 36113U 09070C   17254.88288843  .00000019  00000-0  10000-3 0  9992
2 36113  64.1681 180.5379 0001927 328.6969 144.3604  2.13101957 60273
COSMOS 2459 (731)       
1 36400U 10007A   17254.70076596  .00000018  00000-0  10000-3 0  9993
2 36400  65.4632  61.8140 0026441 357.2279 320.6604  2.13102262 58613
COSMOS 2461 (735)       
1 36401U 10007B   17254.58661693  .00000018  00000-0  10000-3 0  9998
2 36401  65.4565  61.7954 0008703  77.1670  63.7716  2.13102297 58612
COSMOS 2460 (732)       
1 36402U 10007C   17255.46054413  .00000020  00000-0  10000-3 0  9996
2 36402  65.4470  61.7370 0002442  99.9294  32.5494  2.13101784 58637
COSMOS 2465 (737)       
1 37138U 10041B   17255.23515954  .00000007  00000-0  00000+0 0  9998
2 37138  64.6309 300.9790 0036657 171.8499 267.3838  2.13097571 54704
COSMOS 2464 (736)       
1 37139U 10041C   17255.09785391  .00000007  00000-0  00000+0 0  9997
2 37139  64.6377 300.9840 0021043   9.0169 149.0554  2.13102749 54698
COSMOS 2471 (701K)      
1 37372U 11009A   17254.75858701  .00000018  00000-0  00000-0 0  9992
2 37372  65.4442  61.7078 0007059 221.8406 230.1032  2.13107733 50892
COSMOS 2474 (742)       
1 37829U 11055A   17254.74128308  .00000022  00000-0  00000-0 0  9997
2 37829  64.5052 181.2181 0009586 251.8105 155.7785  2.13102023 46265
COSMOS 2476 (744)       
1 37867U 11064A   17255.28991201  .00000015  00000-0  00000+0 0  9990
2 37867  64.4850 181.2692 0018907 245.0447 269.3977  2.13102055 45629
COSMOS 2477 (745)       
1 37868U 11064B   17254.70230531  .00000022  00000-0  00000+0 0  9997
2 37868  64.4939 181.3341 0016864 246.6543 356.0733  2.13101970 45566
COSMOS 2475 (743)       
1 37869U 11064C   17255.07943311  .00000018  00000-0  00000+0 0  9991
2 37869  64.5012 181.3133 0021625 270.5398 217.9856  2.13102282 45584
COSMOS 2485 (747)       
1 39155U 13019A   17254.77181991  .00000022  00000-0  00000-0 0  9993
2 39155  64.6548 181.3349 0019343 240.2365 281.7398  2.13102162 34080
COSMOS 2492 (754)       
1 39620U 14012A   17254.67913188  .00000018  00000-0  10000-3 0  9993
2 39620  65.3366  61.6880 0013114 338.8237 146.3726  2.13103449 27032
COSMOS 2500 (755)       
1 40001U 14032A   17254.89561814  .00000018  00000-0  00000+0 0  9994
2 40001  65.2778  61.6710 0005987 183.2830 330.8673  2.13102838 25259
COSMOS 2501 (702K)      
1 40315U 14075A   17254.63769267  .00000004  00000-0  00000-0 0  9999
2 40315  64.3647 302.3124 0016914 209.8226 271.4072  2.13098747 21658
COSMOS 2514 (751)       
1 41330U 16008A   17254.57021899  .00000017  00000-0  00000-0 0  9994
2 41330  65.0773  61.8039 0008575 201.2661 243.4533  2.13103442 12413
COSMOS 2516 (753)       
1 41554U 16032A   17254.68617569  .00000004  00000-0  00000-0 0  9992
2 41554  64.5851 302.0987 0014292 220.4685 205.3553  2.13101714 10020
